ORBCOMM FM06            
1 25118U 97084G   26159.53661762  .00001411  00000+0  41910-3 0  9998
2 25118  45.0137  94.3553 0001891 304.6268 226.3117 14.47541796493136
ORBCOMM FM04            
1 25159U 98007C   26159.82453047  .00000888  00000+0  34939-3 0  9996
2 25159 107.9626 152.2079 0041066 339.1724  20.7742 14.35726025475392
ORBCOMM FM19            
1 25415U 98046C   26159.60637545  .00000874  00000+0  32314-3 0  9997
2 25415  44.9944 284.3488 0004318 247.3219 131.3998 14.39482707455546
ORBCOMM FM20            
1 25416U 98046D   26158.07864949  .00000707  00000+0  27803-3 0  9990
2 25416  44.9949 299.4212 0001612 215.8377 144.2363 14.38052845455334
ORBCOMM FM27            
1 25481U 98053G   26159.85726767  .00000907  00000+0  33612-3 0  9999
2 25481  45.0065  14.9171 0000245 122.8540 237.2333 14.39126061449034
ORBCOMM FM32            
1 25982U 99065C   26158.83624317  .00000620  00000+0  25418-3 0  9991
2 25982  45.0143 217.5021 0005127 347.4270  12.6449 14.37120115385743
ORBCOMM FM109           
1 40086U 14040A   26159.60582431  .00000603  00000+0  16383-3 0  9991
2 40086  47.0017 132.0583 0001655 221.2849 138.7912 14.58836358633099
ORBCOMM FM114           
1 41179U 15081A   26159.41765644  .00000490  00000+0  13985-3 0  9998
2 41179  47.0058  43.4650 0001977 170.6189 189.4734 14.58848434556478
ORBCOMM FM110           
1 41182U 15081D   26159.40617106  .00000743  00000+0  19351-3 0  9994
2 41182  47.0028  42.9609 0002852  26.3800 333.7231 14.58866539556345
ORBCOMM FM118           
1 41183U 15081E   26159.37192237  .00002733  00000+0  61393-3 0  9998
2 41183  47.0109  43.4533 0003135 338.0740  22.0011 14.58872980556441
ORBCOMM FM112           
1 41184U 15081F   26158.69180097  .00000819  00000+0  20932-3 0  9991
2 41184  47.0001 315.1475 0003123 175.6095 184.4819 14.58890878557561
ORBCOMM FM113           
1 41185U 15081G   26159.14754797  .00000505  00000+0  14299-3 0  9998
2 41185  47.0018 313.3644 0001738 188.1874 171.8983 14.58849184557614
ORBCOMM FM108           
1 41187U 15081J   26159.45245002  .00000548  00000+0  15217-3 0  9996
2 41187  47.0040 223.4955 0002510 184.4862 175.6002 14.58862136558800
ORBCOMM FM117           
1 41188U 15081K   26158.87004529  .00000590  00000+0  16110-3 0  9999
2 41188  47.0005 224.8856 0002980 184.7848 175.3010 14.58857943558766
ORBCOMM FM116           
1 41189U 15081L   26158.71361229  .00000857  00000+0  21737-3 0  9993
2 41189  47.0035 315.4145 0001121   3.5235 356.5659 14.58869594557555
